STARLINK-4509           
1 53404U 22097S   26068.51553569  .00000053  00000+0  21424-4 0  9991
2 53404  53.2165 114.8358 0001282  92.2882 267.8257 15.08841410198629
STARLINK-5895           
1 55964U 23037BC  26068.93316413  .00010921  00000+0  72850-3 0  9993
2 55964  69.9972 260.0280 0004986 264.4993  95.5602 15.07243555164606
